ONEWEB-0309             
1 49095U 21075W   23346.55371188  .00000170  00000+0  40413-3 0  9990
2 49095  87.9200 188.2899 0002122  96.4724 263.6649 13.17649639112738
ONEWEB-0310             
1 49096U 21075X   23346.56901414  .00003774  00000+0  10453-1 0  9995
2 49096  87.9003 173.1807 0001698  78.6178 281.5141 13.12421966114828
ONEWEB-0311             
1 49097U 21075Y   23346.56004635  .00000101  00000+0  22648-3 0  9997
2 49097  87.9202 188.2886 0001849  71.9371 288.1962 13.17650574112784
ONEWEB-0312             
1 49098U 21075Z   23346.57269393  .00000073  00000+0  15403-3 0  9992
2 49098  87.9216 188.3152 0002091  86.4145 273.7226 13.17647929112768
ONEWEB-0313             
1 49099U 21075AA  23346.55160810  .00000074  00000+0  15673-3 0  9995
2 49099  87.9199 188.3252 0001900  82.8228 277.3119 13.17649500112757
ONEWEB-0314             
1 49100U 21075AB  23346.54527977  .00000067  00000+0  13837-3 0  9990
2 49100  87.9203 188.2898 0002104  82.9587 277.1784 13.17650826112723
ONEWEB-0315             
1 49101U 21075AC  23346.54361115 -.00000173  00000+0 -51679-3 0  9997
2 49101  87.8996 173.1935 0001330  84.1874 275.9406 13.12444852114803
ONEWEB-0316             
1 49102U 21075AD  23346.50856410  .00000139  00000+0  31997-3 0  9992
2 49102  87.9136 158.0281 0001638  70.8479 289.2830 13.18689010116265
